IRIDIUM 150             
1 43257U 18030J   25066.39675308  .00000322  00000+0  10807-3 0  9998
2 43257  86.3967 125.6387 0002133  88.2136 271.9304 14.34218934363255
IRIDIUM 143             
1 43258U 18030K   25066.44749284  .00000265  00000+0  87506-4 0  9997
2 43258  86.3971 125.6920 0002080  83.7488 276.3945 14.34218837363190
IRIDIUM 161             
1 43478U 18047C   25066.29512223  .00000535  00000+0  15302-3 0  9997
2 43478  86.4442 283.5640 0002101  87.5421 272.6021 14.43284080357790
IRIDIUM 152             
1 43479U 18047D   25066.35044449  .00000395  00000+0  13392-3 0  9996
2 43479  86.3917 283.4006 0002186  88.4437 271.7009 14.34218769355573
IRIDIUM 147             
1 43480U 18047E   25066.35678471  .00000246  00000+0  80783-4 0  9990
2 43480  86.3918 283.3949 0001997  94.4585 265.6838 14.34219040355576
IRIDIUM 110             
1 43481U 18047F   25066.29336043  .00000213  00000+0  69072-4 0  9992
2 43481  86.3922 283.5014 0002352  96.9619 263.1844 14.34218458355558
IRIDIUM 162             
1 43482U 18047G   25066.35814065  .00000540  00000+0  15445-3 0  9992
2 43482  86.4441 283.4340 0002427  88.0624 272.0855 14.43286641357796
IRIDIUM 160             
1 43569U 18061A   25066.51826828  .00000075  00000+0  19589-4 0  9999
2 43569  86.3920 251.7534 0002175  96.1445 263.9999 14.34217964346481
